QIANFAN-9               
1 60387U 24140J   25216.18219735  .00000110  00000+0  15177-3 0  9992
2 60387  88.9847 312.8254 0015694 207.7888 152.2426 13.50957241 49697
QIANFAN-10              
1 60388U 24140K   25216.18633224  .00000113  00000+0  15640-3 0  9994
2 60388  88.9856 312.1604 0014999 184.3197 175.7827 13.50959521 50083
QIANFAN-11              
1 60389U 24140L   25216.22332056  .00000123  00000+0  17151-3 0  9999
2 60389  88.9783 312.8404 0013742 206.3376 153.7078 13.50959710 49584
QIANFAN-12              
1 60390U 24140M   25216.16977179  .00000102  00000+0  13928-3 0  9990
2 60390  88.9826 312.8323 0012287 214.2739 145.7620 13.50959546 49657
QIANFAN-13              
1 60391U 24140N   25216.21505319  .00000103  00000+0  14141-3 0  9999
2 60391  88.9838 312.9113 0012020 216.8417 143.1909 13.50959359 49637
QIANFAN-14              
1 60392U 24140P   25216.16562640  .00000119  00000+0  16525-3 0  9999
2 60392  88.9817 312.8420 0015673 218.9264 141.0760 13.50960550 49632
QIANFAN-15              
1 60393U 24140Q   25216.17399750  .00000110  00000+0  15223-3 0  9996
2 60393  88.9841 312.7668 0011986 202.1591 157.9043 13.50957232 49716
QIANFAN-16              
1 60394U 24140R   25216.16161830  .00000118  00000+0  16376-3 0  9990
2 60394  88.9844 312.8840 0013477 222.1599 137.8516 13.50959644 49665
